{
  "norad_id": 48056,
  "name": "ONEWEB-0162",
  "history": [
    {
      "epoch": "2026-03-28T18:18:01.064448",
      "apogee_km": 1210.9578878797965,
      "perigee_km": 1208.580445119709,
      "latitude_deg": -31.027589264473857,
      "longitude_deg": 138.80118272011168,
      "semi_major_axis_km": 7587.9061664997525,
      "eccentricity": 0.00015666,
      "inclination_deg": 87.902,
      "raan_deg": 336.231,
      "arg_perigee_deg": 77.0448,
      "mean_anomaly_deg": 283.0856,
      "mean_motion_rev_day": 13.13469022
    },
    {
      "epoch": "2026-03-29T03:26:29.811840",
      "apogee_km": 1210.9612110692315,
      "perigee_km": 1208.57405627148,
      "latitude_deg": -45.340674661592395,
      "longitude_deg": 175.36645760014653,
      "semi_major_axis_km": 7587.904633670356,
      "eccentricity": 0.0001573,
      "inclination_deg": 87.902,
      "raan_deg": 336.1554,
      "arg_perigee_deg": 77.5531,
      "mean_anomaly_deg": 282.5774,
      "mean_motion_rev_day": 13.1346942
    }
  ]
}